OBJECT_NAME,OBJECT_ID,EPOCH,MEAN_MOTION,ECCENTRICITY,INCLINATION,RA_OF_ASC_NODE,ARG_OF_PERICENTER,MEAN_ANOMALY,EPHEMERIS_TYPE,CLASSIFICATION_TYPE,NORAD_CAT_ID,ELEMENT_SET_NO,REV_AT_EPOCH,BSTAR,MEAN_MOTION_DOT,MEAN_MOTION_DDOT
GLOBALSTAR M069,2007-020C,2026-07-16T02:47:13.161984,12.23472233,.0001638,52.0009,170.2453,212.5494,228.2517,0,U,31573,999,88234,-.22377E-3,-.117E-5,0
GLOBALSTAR M072,2007-020D,2026-07-16T00:21:22.169952,11.91658844,.0001655,51.9949,23.4983,37.1365,132.9551,0,U,31574,999,87841,.17034E-3,-.72E-6,0
GLOBALSTAR M066,2007-048C,2026-07-15T15:51:02.315808,12.30389489,.00055941,51.9609,336.1749,102.7371,269.9817,0,U,32265,999,86373,.36375337E-3,-.52E-6,0
GLOBALSTAR M079,2010-054A,2026-07-15T21:34:23.054880,12.62266431,.0001129,52.0055,21.2674,78.9268,67.7048,0,U,37188,999,72617,-.28003E-5,-.104E-5,0
GLOBALSTAR M074,2010-054B,2026-07-15T22:17:59.279712,12.62262033,.0000869,52.0032,20.4362,93.4873,70.7747,0,U,37189,999,72678,.68052E-5,-.103E-5,0
GLOBALSTAR M076,2010-054C,2026-07-15T18:19:53.021568,12.62262357,.00010953,52.0044,21.1451,93.6543,278.7739,0,U,37190,999,72648,.46166245E-4,-.96E-6,0
GLOBALSTAR M077,2010-054D,2026-07-16T03:58:40.845792,11.67547416,.0002251,51.9960,105.7432,226.9989,281.7118,0,U,37191,999,72452,-.43765E-3,-.102E-5,0
GLOBALSTAR M075,2010-054E,2026-07-16T03:04:37.164288,12.62267845,.0000767,51.9955,62.0736,65.7269,103.9288,0,U,37192,999,72559,.7803E-4,-.9E-6,0
GLOBALSTAR M073,2010-054F,2026-07-15T19:27:18.407808,12.62266879,.0001063,52.0081,337.1636,96.8782,67.2732,0,U,37193,999,72754,-.3019E-5,-.104E-5,0
GLOBALSTAR M083,2011-033A,2026-07-16T04:28:40.001376,12.62264227,.0000753,51.9864,284.2096,107.6420,266.9612,0,U,37739,999,69661,.18664E-3,-.7E-6,0
GLOBALSTAR M088,2011-033B,2026-07-16T00:09:02.205792,12.62269488,.0000048,52.0189,191.2543,93.5904,300.0216,0,U,37740,999,69213,-.73694E-4,-.117E-5,0
GLOBALSTAR M091,2011-033C,2026-07-16T02:37:43.571712,12.62264246,.0000442,51.9982,153.8624,25.6476,57.9985,0,U,37741,999,69293,-.85046E-4,-.119E-5,0
GLOBALSTAR M085,2011-033D,2026-07-16T04:35:13.179264,12.62264349,.0000798,52.0125,104.9316,42.5641,112.0435,0,U,37742,999,69345,.70669E-4,-.91E-6,0
GLOBALSTAR M081,2011-033E,2026-07-16T05:16:17.804928,12.62265278,.0000689,51.9954,107.2477,55.7416,108.4065,0,U,37743,999,69360,.23299E-4,-.1E-5,0
GLOBALSTAR M089,2011-033F,2026-07-16T00:25:10.736832,12.62267580,.0000701,51.9936,62.0166,90.3918,55.7492,0,U,37744,999,69442,.76028E-4,-.9E-6,0
GLOBALSTAR M084,2011-080A,2026-07-15T11:05:21.032736,12.62263504,.00008243,52.0021,291.2057,129.9842,310.7473,0,U,38040,999,67233,.10404154E-3,-.85E-6,0
GLOBALSTAR M080,2011-080B,2026-07-16T05:03:05.414112,12.62257460,.0000286,52.0068,290.6556,81.2355,291.9152,0,U,38041,999,67255,.13593E-3,-.79E-6,0
GLOBALSTAR M082,2011-080C,2026-07-16T03:38:13.830144,12.62264282,.0000189,52.0061,246.3389,83.9753,311.2190,0,U,38042,999,67325,.15136E-3,-.77E-6,0
GLOBALSTAR M092,2011-080D,2026-07-15T20:05:11.430240,12.62267811,.00007791,52.0105,337.6936,103.6458,60.5815,0,U,38043,999,67166,.88256051E-4,-.88E-6,0
GLOBALSTAR M090,2011-080E,2026-07-15T07:36:29.637216,12.62269578,.00004273,52.0106,242.8440,91.1185,348.7415,0,U,38044,999,67326,.28459492E-3,-.53E-6,0
GLOBALSTAR M086,2011-080F,2026-07-16T02:47:39.882048,12.62287791,.0001497,51.9877,240.2921,113.1498,264.9646,0,U,38045,999,67331,.70587E-4,-.91E-6,0
GLOBALSTAR M097,2013-005A,2026-07-16T01:33:41.779296,12.62271364,.000046,52.0027,155.4280,40.9280,319.1621,0,U,39072,999,62055,-.12859E-3,-.127E-5,0
GLOBALSTAR M093,2013-005B,2026-07-16T00:55:09.496704,12.62266310,.0000671,52.0089,148.8675,45.4999,314.5922,0,U,39073,999,62050,-.78966E-4,-.118E-5,0
GLOBALSTAR M094,2013-005C,2026-07-16T00:54:57.049056,12.62264172,.0001019,51.9970,62.9567,64.0389,296.0582,0,U,39074,999,62211,.91638E-4,-.87E-6,0
GLOBALSTAR M096,2013-005D,2026-07-16T03:08:27.238848,12.62265718,.0000765,52.0071,111.4982,44.1269,315.9659,0,U,39075,999,62104,.53762E-4,-.94E-6,0
GLOBALSTAR M078,2013-005E,2026-07-16T00:35:44.136960,12.62260136,.000085,51.9844,195.7917,340.4467,19.6366,0,U,39076,999,61965,-.10022E-3,-.122E-5,0
GLOBALSTAR M095,2013-005F,2026-07-15T17:38:03.061824,12.62264145,.00004688,52.0054,194.3192,13.1932,346.8947,0,U,39077,999,61947,-.85055258E-4,-.119E-5,0
GLOBALSTAR M087,2022-064A,2026-07-15T16:02:54.277728,12.62269258,.00009182,52.0013,335.7423,85.2007,274.8964,0,U,52888,999,19473,.4333312E-5,-.103E-5,0
